{"type": "FeatureCollection", "features": [ {"type": "Feature", "properties": {"norad_id": 40664, "name": "SKY MEXICO-1", "group": "intelsat", "lat": -0.01263021144832891, "lon": -5.381418937744345, "alt_km": 35781.62927284501, "timestamp": "2025-12-27T22:26:48.280594+00:00", "meta": {"OBJECT_NAME": "SKY MEXICO-1", "OBJECT_ID": "2015-026B", "EPOCH": "2025-12-27T09:12:12.143232", "MEAN_MOTION": 1.00271849, "ECCENTRICITY": 0.0002565, "INCLINATION": 0.0094, "RA_OF_ASC_NODE": 35.2634, "ARG_OF_PERICENTER": 253.8572, "MEAN_ANOMALY": 226.2839, "EPHEMERIS_TYPE": 0, "CLASSIFICATION_TYPE": "U", "NORAD_CAT_ID": 40664, "ELEMENT_SET_NO": 999, "REV_AT_EPOCH": 3873, "BSTAR": 0, "MEAN_MOTION_DOT": -2.12e-06, "MEAN_MOTION_DDOT": 0}, "tle": {"line1": "1 40664U 15026B   25361.38347388 -.00000212  00000+0  00000+0 0  9999", "line2": "2 40664   0.0094  35.2634 0002565 253.8572 226.2839  1.00271849 38733"}}, "geometry": {"type": "Point", "coordinates": [-5.381418937744345, -0.01263021144832891]}}, {"type": "Feature", "properties": {"norad_id": 40874, "name": "INTELSAT 34 (IS-34)", "group": "intelsat", "lat": 0.015451865658952074, "lon": 17.86870392809194, "alt_km": 35787.59419179941, "timestamp": "2025-12-27T22:26:48.280605+00:00", "meta": {"OBJECT_NAME": "INTELSAT 34 (IS-34)", "OBJECT_ID": "2015-039A", "EPOCH": "2025-12-27T11:01:31.673568", "MEAN_MOTION": 1.00275692, "ECCENTRICITY": 6.08e-05, "INCLINATION": 0.0122, "RA_OF_ASC_NODE": 318.914, "ARG_OF_PERICENTER": 240.4135, "MEAN_ANOMALY": 6.7535, "EPHEMERIS_TYPE": 0, "CLASSIFICATION_TYPE": "U", "NORAD_CAT_ID": 40874, "ELEMENT_SET_NO": 999, "REV_AT_EPOCH": 3790, "BSTAR": 0, "MEAN_MOTION_DOT": -2.63e-06, "MEAN_MOTION_DDOT": 0}, "tle": {"line1": "1 40874U 15039A   25361.45939437 -.00000263  00000+0  00000+0 0  9992", "line2": "2 40874   0.0122 318.9140 0000608 240.4135   6.7535  1.00275692 37906"}}, "geometry": {"type": "Point", "coordinates": [17.86870392809194, 0.015451865658952074]}}, {"type": "Feature", "properties": {"norad_id": 41581, "name": "INTELSAT 31 (IS-31)", "group": "intelsat", "lat": 0.0029716758814064053, "lon": -21.724274877999356, "alt_km": 35792.30442197163, "timestamp": "2025-12-27T22:26:48.280617+00:00", "meta": {"OBJECT_NAME": "INTELSAT 31 (IS-31)", "OBJECT_ID": "2016-035A", "EPOCH": "2025-12-23T19:31:44.703840", "MEAN_MOTION": 1.00269658, "ECCENTRICITY": 0.0001926, "INCLINATION": 0.0283, "RA_OF_ASC_NODE": 262.055, "ARG_OF_PERICENTER": 303.365, "MEAN_ANOMALY": 85.0534, "EPHEMERIS_TYPE": 0, "CLASSIFICATION_TYPE": "U", "NORAD_CAT_ID": 41581, "ELEMENT_SET_NO": 999, "REV_AT_EPOCH": 3492, "BSTAR": 0, "MEAN_MOTION_DOT": -1.29e-06, "MEAN_MOTION_DDOT": 0}, "tle": {"line1": "1 41581U 16035A   25357.81371185 -.00000129  00000+0  00000+0 0  9991", "line2": "2 41581   0.0283 262.0550 0001926 303.3650  85.0534  1.00269658 34922"}}, "geometry": {"type": "Point", "coordinates": [-21.724274877999356, 0.0029716758814064053]}}, {"type": "Feature", "properties": {"norad_id": 41747, "name": "INTELSAT 36 (IS-36)", "group": "intelsat", "lat": 0.019891017144350247, "lon": 141.8560352692124, "alt_km": 35790.83940085879, "timestamp": "2025-12-27T22:26:48.280629+00:00", "meta": {"OBJECT_NAME": "INTELSAT 36 (IS-36)", "OBJECT_ID": "2016-053A", "EPOCH": "2025-12-27T11:36:58.279104", "MEAN_MOTION": 1.00273471, "ECCENTRICITY": 0.0001247, "INCLINATION": 0.0091, "RA_OF_ASC_NODE": 7.4041, "ARG_OF_PERICENTER": 317.6199, "MEAN_ANOMALY": 13.9326, "EPHEMERIS_TYPE": 0, "CLASSIFICATION_TYPE": "U", "NORAD_CAT_ID": 41747, "ELEMENT_SET_NO": 999, "REV_AT_EPOCH": 3422, "BSTAR": 0, "MEAN_MOTION_DOT": -2e-08, "MEAN_MOTION_DDOT": 0}, "tle": {"line1": "1 41747U 16053A   25361.48400786 -.00000002  00000+0  00000+0 0  9993", "line2": "2 41747   0.0091   7.4041 0001247 317.6199  13.9326  1.00273471 34221"}}, "geometry": {"type": "Point", "coordinates": [141.8560352692124, 0.019891017144350247]}}, {"type": "Feature", "properties": {"norad_id": 41945, "name": "INTELSAT 32E (IS-32E)", "group": "intelsat", "lat": -0.01271476477568625, "lon": 30.185617344933803, "alt_km": 35784.61938670259, "timestamp": "2025-12-27T22:26:48.280640+00:00", "meta": {"OBJECT_NAME": "INTELSAT 32E (IS-32E)", "OBJECT_ID": "2017-007B", "EPOCH": "2025-12-27T04:14:10.684320", "MEAN_MOTION": 1.00273823, "ECCENTRICITY": 3.01e-05, "INCLINATION": 0.0262, "RA_OF_ASC_NODE": 75.2297, "ARG_OF_PERICENTER": 275.2972, "MEAN_ANOMALY": 125.7539, "EPHEMERIS_TYPE": 0, "CLASSIFICATION_TYPE": "U", "NORAD_CAT_ID": 41945, "ELEMENT_SET_NO": 999, "REV_AT_EPOCH": 3250, "BSTAR": 0, "MEAN_MOTION_DOT": -2.46e-06, "MEAN_MOTION_DDOT": 0}, "tle": {"line1": "1 41945U 17007B   25361.17651255 -.00000246  00000+0  00000+0 0  9998", "line2": "2 41945   0.0262  75.2297 0000301 275.2972 125.7539  1.00273823 32503"}}, "geometry": {"type": "Point", "coordinates": [30.185617344933803, -0.01271476477568625]}}, {"type": "Feature", "properties": {"norad_id": 42818, "name": "INTELSAT 35E (IS-35E)", "group": "intelsat", "lat": 0.0037492304651555747, "lon": 38.88081043201025, "alt_km": 35791.05926322976, "timestamp": "2025-12-27T22:26:48.280651+00:00", "meta": {"OBJECT_NAME": "INTELSAT 35E (IS-35E)", "OBJECT_ID": "2017-041A", "EPOCH": "2025-12-27T11:07:31.101024", "MEAN_MOTION": 1.00273079, "ECCENTRICITY": 0.0002081, "INCLINATION": 0.0166, "RA_OF_ASC_NODE": 47.84, "ARG_OF_PERICENTER": 224.0356, "MEAN_ANOMALY": 316.7047, "EPHEMERIS_TYPE": 0, "CLASSIFICATION_TYPE": "U", "NORAD_CAT_ID": 42818, "ELEMENT_SET_NO": 999, "REV_AT_EPOCH": 3109, "BSTAR": 0, "MEAN_MOTION_DOT": -2.15e-06, "MEAN_MOTION_DDOT": 0}, "tle": {"line1": "1 42818U 17041A   25361.46355441 -.00000215  00000+0  00000+0 0  9992", "line2": "2 42818   0.0166  47.8400 0002081 224.0356 316.7047  1.00273079 31094"}}, "geometry": {"type": "Point", "coordinates": [38.88081043201025, 0.0037492304651555747]}}, {"type": "Feature", "properties": {"norad_id": 42950, "name": "INTELSAT 37E (IS-37E)", "group": "intelsat", "lat": 0.020998516990931554, "lon": 55.379116416601235, "alt_km": 35797.81014501304, "timestamp": "2025-12-27T22:26:48.280663+00:00", "meta": {"OBJECT_NAME": "INTELSAT 37E (IS-37E)", "OBJECT_ID": "2017-059A", "EPOCH": "2025-12-27T09:29:32.983296", "MEAN_MOTION": 1.00271344, "ECCENTRICITY": 0.0003132, "INCLINATION": 0.0198, "RA_OF_ASC_NODE": 29.8177, "ARG_OF_PERICENTER": 234.5164, "MEAN_ANOMALY": 316.1899, "EPHEMERIS_TYPE": 0, "CLASSIFICATION_TYPE": "U", "NORAD_CAT_ID": 42950, "ELEMENT_SET_NO": 999, "REV_AT_EPOCH": 3034, "BSTAR": 0, "MEAN_MOTION_DOT": -1.18e-06, "MEAN_MOTION_DDOT": 0}, "tle": {"line1": "1 42950U 17059A   25361.39552064 -.00000118  00000+0  00000+0 0  9992", "line2": "2 42950   0.0198  29.8177 0003132 234.5164 316.1899  1.00271344 30347"}}, "geometry": {"type": "Point", "coordinates": [55.379116416601235, 0.020998516990931554]}}, {"type": "Feature", "properties": {"norad_id": 43632, "name": "AZERSPACE 2 (IS-38)", "group": "intelsat", "lat": 0.03285153477709881, "lon": 118.4584387513852, "alt_km": 35792.16350076994, "timestamp": "2025-12-27T22:26:48.280674+00:00", "meta": {"OBJECT_NAME": "AZERSPACE 2 (IS-38)", "OBJECT_ID": "2018-074A", "EPOCH": "2025-12-27T11:30:13.926240", "MEAN_MOTION": 1.00271504, "ECCENTRICITY": 0.0001533, "INCLINATION": 0.0172, "RA_OF_ASC_NODE": 2.3727, "ARG_OF_PERICENTER": 275.1923, "MEAN_ANOMALY": 36.3147, "EPHEMERIS_TYPE": 0, "CLASSIFICATION_TYPE": "U", "NORAD_CAT_ID": 43632, "ELEMENT_SET_NO": 999, "REV_AT_EPOCH": 2672, "BSTAR": 0, "MEAN_MOTION_DOT": 1.59e-06, "MEAN_MOTION_DDOT": 0}, "tle": {"line1": "1 43632U 18074A   25361.47932785  .00000159  00000+0  00000+0 0  9993", "line2": "2 43632   0.0172   2.3727 0001533 275.1923  36.3147  1.00271504 26723"}}, "geometry": {"type": "Point", "coordinates": [118.4584387513852, 0.03285153477709881]}}, {"type": "Feature", "properties": {"norad_id": 43633, "name": "HORIZONS-3E", "group": "intelsat", "lat": 0.014920936103055237, "lon": -117.63141756709653, "alt_km": 35783.117347583124, "timestamp": "2025-12-27T22:26:48.280685+00:00", "meta": {"OBJECT_NAME": "HORIZONS-3E", "OBJECT_ID": "2018-074B", "EPOCH": "2025-12-26T17:15:43.848864", "MEAN_MOTION": 1.00274781, "ECCENTRICITY": 7.286e-05, "INCLINATION": 0.0491, "RA_OF_ASC_NODE": 194.9821, "ARG_OF_PERICENTER": 94.8605, "MEAN_ANOMALY": 233.5586, "EPHEMERIS_TYPE": 0, "CLASSIFICATION_TYPE": "U", "NORAD_CAT_ID": 43633, "ELEMENT_SET_NO": 999, "REV_AT_EPOCH": 2661, "BSTAR": 0, "MEAN_MOTION_DOT": -7e-08, "MEAN_MOTION_DDOT": 0}, "tle": {"line1": "1 43633U 18074B   25360.71925751 -.00000007  00000+0  00000+0 0  9998", "line2": "2 43633   0.0491 194.9821 0000728  94.8605 233.5586  1.00274781 26615"}}, "geometry": {"type": "Point", "coordinates": [-117.63141756709653, 0.014920936103055237]}}, {"type": "Feature", "properties": {"norad_id": 44333, "name": "AT&T T-16", "group": "intelsat", "lat": -0.031762460010381674, "lon": -27.446340722715195, "alt_km": 35787.18014400074, "timestamp": "2025-12-27T22:26:48.280697+00:00", "meta": {"OBJECT_NAME": "AT&T T-16", "OBJECT_ID": "2019-034A", "EPOCH": "2025-12-26T09:24:01.437984", "MEAN_MOTION": 1.00280007, "ECCENTRICITY": 9.59e-05, "INCLINATION": 0.0209, "RA_OF_ASC_NODE": 69.0211, "ARG_OF_PERICENTER": 116.5883, "MEAN_ANOMALY": 309.683, "EPHEMERIS_TYPE": 0, "CLASSIFICATION_TYPE": "U", "NORAD_CAT_ID": 44333, "ELEMENT_SET_NO": 999, "REV_AT_EPOCH": 2390, "BSTAR": 0, "MEAN_MOTION_DOT": -9.5e-07, "MEAN_MOTION_DDOT": 0}, "tle": {"line1": "1 44333U 19034A   25360.39168331 -.00000095  00000+0  00000+0 0  9997", "line2": "2 44333   0.0209  69.0211 0000959 116.5883 309.6830  1.00280007 23905"}}, "geometry": {"type": "Point", "coordinates": [-27.446340722715195, -0.031762460010381674]}}]}